FENGYUN 1C DEB          
1 31094U 99025BGQ 17345.95502194  .00000698  00000-0  54717-3 0  9997
2 31094  99.0414 251.2306 0115125 148.0887 212.7314 13.92244822548639
